{"generatedAt":"2026-04-02T07:22:13.043864Z","satellites":[{"name":"BEIDOU-2 IGSO-4","tle1":"1 37763U 11038A   26087.66258249 -.00000109  00000+0  00000+0 0  9993","tle2":"2 37763  54.5871 166.4040 0156581 231.4212 120.2889  1.00260433 53838"},{"name":"ASTRA 1N","tle1":"1 37775U 11041A   26091.68431568  .00000111  00000+0  00000+0 0  9996","tle2":"2 37775   0.0836  37.6267 0004957   3.8088  54.1563  1.00273063 43767"},{"name":"BSAT-3C (JCSAT-110R)","tle1":"1 37776U 11041B   26091.84608608 -.00000359  00000+0  00000+0 0  9991","tle2":"2 37776   0.0558  56.6723 0000785  27.7930 160.2781  1.00272128 49705"},{"name":"PAKSAT-1R","tle1":"1 37779U 11042A   26091.78030868  .00000146  00000+0  00000+0 0  9998","tle2":"2 37779   0.4913  85.1895 0002952 317.8094 105.9640  1.00277020 53718"},{"name":"SES-2","tle1":"1 37809U 11049A   26091.44937442 -.00000205  00000+0  00000+0 0  9993","tle2":"2 37809   0.0498  63.7547 0002865 306.0172 254.8008  1.00272193 53192"},{"name":"ARABSAT-5C","tle1":"1 37810U 11049B   26091.68448902  .00000115  00000+0  00000+0 0  9998","tle2":"2 37810   0.0577   2.5488 0002620  15.1892  78.7268  1.00273368 53278"},{"name":"EUTELSAT 7 WEST A","tle1":"1 37816U 11051A   26091.67902899 -.00000069  00000+0  00000+0 0  9995","tle2":"2 37816   0.0743  25.3785 0001346  99.5597 302.1959  1.00272286 53105"},{"name":"QUETZSAT 1","tle1":"1 37826U 11054A   26091.45136777 -.00000251  00000+0  00000+0 0  9992","tle2":"2 37826   0.0461  51.8090 0002915 332.9989 250.4833  1.00271576 49100"},{"name":"INTELSAT 18 (IS-18)","tle1":"1 37834U 11056A   26091.62753213  .00000044  00000+0  00000+0 0  9991","tle2":"2 37834   0.0254 254.5808 0001960 111.6249 229.6716  1.00272743 53041"},{"name":"EUTELSAT 16A","tle1":"1 37836U 11057A   26091.68370902  .00000095  00000+0  00000+0 0  9996","tle2":"2 37836   0.0583   9.1693 0005540   5.6415  77.3445  1.00271881  6574"},{"name":"VIASAT-1","tle1":"1 37843U 11059A   26091.59904549 -.00000033  00000+0  00000+0 0  9999","tle2":"2 37843   0.0019 165.4846 0002546 209.9171 275.0946  1.00271485 46558"},{"name":"ASIASAT 7","tle1":"1 37933U 11069A   26091.85289172 -.00000341  00000+0  00000+0 0  9999","tle2":"2 37933   0.0029 189.1427 0001514 189.4850 224.0909  1.00268961 44092"},{"name":"BEIDOU-2 IGSO-5","tle1":"1 37948U 11073A   26087.49184589 -.00000156  00000+0  00000+0 0  9995","tle2":"2 37948  47.8262 272.5386 0109314 220.7131 324.4481  1.00266601 52329"},{"name":"LUCH-5A","tle1":"1 37951U 11074B   26091.62976380 -.00000053  00000+0  00000+0 0  9994","tle2":"2 37951   8.5607  74.9193 0003205 279.9758 228.7396  1.00270657 52285"},{"name":"NIGCOMSAT 1R","tle1":"1 38014U 11077A   26091.61760462  .00000136  00000+0  00000+0 0  9990","tle2":"2 38014   0.0200 153.6720 0002429 187.1432 114.0248  1.00276018 52188"},{"name":"WGS F4 (USA 233)","tle1":"1 38070U 12003A   26091.48412791 -.00000224  00000+0  00000+0 0  9995","tle2":"2 38070   0.0153 183.5330 0000397 154.6604 114.3092  1.00271266 43379"},{"name":"SES-4","tle1":"1 38087U 12007A   26091.67616898 -.00000177  00000+0  00000+0 0  9999","tle2":"2 38087   0.0339  64.7844 0002424 311.6895  34.9750  1.00270772 51450"},{"name":"BEIDOU-2 G5","tle1":"1 38091U 12008A   26091.69211571  .00000050  00000+0  00000+0 0  9995","tle2":"2 38091   3.3841  70.1346 0013416 259.7667 168.0465  1.00274797 51609"},{"name":"MUOS-1","tle1":"1 38093U 12009A   26091.59060185 -.00000133  00000+0  00000+0 0  9993","tle2":"2 38093   5.3198  47.1826 0058814 359.6055 255.8327  1.00271843 51675"},{"name":"INTELSAT 22 (IS-22)","tle1":"1 38098U 12011A   26091.40959427 -.00000069  00000+0  00000+0 0  9995","tle2":"2 38098   0.0212 233.8771 0001672 149.5964  25.8591  1.00275288  6414"},{"name":"APSTAR-7","tle1":"1 38107U 12013A   26091.92524913 -.00000109  00000+0  00000+0 0  9998","tle2":"2 38107   0.0132 208.6934 0002639 174.9601 216.2016  1.00272012 51040"},{"name":"YAHSAT 1B","tle1":"1 38245U 12016A   26091.61864462  .00000118  00000+0  00000+0 0  9995","tle2":"2 38245   0.0943  87.8358 0002732 286.2806  86.1586  1.00271776 44840"},{"name":"AEHF-2 (USA 235)","tle1":"1 38254U 12019A   26091.67729566 -.00000139  00000+0  00000+0 0  9993","tle2":"2 38254   6.4738  58.0362 0002892 300.6380  58.7216  1.00271474  6211"},{"name":"JCSAT-13","tle1":"1 38331U 12023A   26091.93447513 -.00000364  00000+0  00000+0 0  9992","tle2":"2 38331   0.0374  82.7265 0002459 314.1429 253.8262  1.00271835 50772"},{"name":"VINASAT-2","tle1":"1 38332U 12023B   26091.86850536 -.00000337  00000+0  00000+0 0  9998","tle2":"2 38332   0.0119 141.4161 0002969 253.2030 240.0919  1.00270999 45899"},{"name":"NIMIQ 6","tle1":"1 38342U 12026A   26091.44850776 -.00000183  00000+0  00000+0 0  9991","tle2":"2 38342   0.0397  69.7408 0002570 296.4555 253.9631  1.00272098 49646"},{"name":"ZHONGXING-2A","tle1":"1 38352U 12028A   26091.85303060 -.00000300  00000+0  00000+0 0  9999","tle2":"2 38352   1.2578  84.8746 0000596 346.0500 164.6415  1.00275891 50534"},{"name":"INTELSAT 19 (IS-19)","tle1":"1 38356U 12030A   26091.85183493 -.00000064  00000+0  00000+0 0  9999","tle2":"2 38356   0.0195 149.7799 0003194 236.2056 276.8691  1.00272180 49686"},{"name":"ECHOSTAR 17","tle1":"1 38551U 12035A   26091.53938883  .00000000  00000+0  00000+0 0  9996","tle2":"2 38551   0.0214 184.1259 0001752 195.3514 257.5003  1.00267503 50296"},{"name":"METEOSAT-10 (MSG-3)","tle1":"1 38552U 12035B   26091.68050234 -.00000012  00000+0  00000+0 0  9992","tle2":"2 38552   4.4917  61.3383 0002447 291.7330  82.0000  1.00272552 50094"},{"name":"SES-5","tle1":"1 38652U 12036A   26091.68154234  .00000025  00000+0  00000+0 0  9992","tle2":"2 38652   0.0611 305.3481 0002240  65.5195  69.4951  1.00272586 43683"},{"name":"INTELSAT 20 (IS-20)","tle1":"1 38740U 12043A   26091.85739163 -.00000033  00000+0  00000+0 0  9997","tle2":"2 38740   0.0114 166.5886 0002406   6.3354  34.4434  1.00272478 49986"},{"name":"HYLAS 2","tle1":"1 38741U 12043B   26091.45223444 -.00000265  00000+0  00000+0 0  9991","tle2":"2 38741   2.2298  81.9908 0002714 312.9393 245.1315  1.00271217 50004"},{"name":"INTELSAT 21 (IS-21)","tle1":"1 38749U 12045A   26091.45509446 -.00000294  00000+0  00000+0 0  9992","tle2":"2 38749   0.0167 227.6778 0001722 151.2370 276.7208  1.00271137 49756"},{"name":"ASTRA 2F","tle1":"1 38778U 12051A   26091.68613569  .00000141  00000+0  00000+0 0  9998","tle2":"2 38778   0.0739 256.3342 0001370  21.1138 187.7962  1.00275051 40360"},{"name":"GSAT-10","tle1":"1 38779U 12051B   26091.47891926 -.00000174  00000+0  00000+0 0  9998","tle2":"2 38779   0.0116 188.5270 0005972 252.5321   4.1609  1.00270785 49326"},{"name":"INTELSAT 23 (IS-23)","tle1":"1 38867U 12057A   26091.45613446 -.00000294  00000+0  00000+0 0  9992","tle2":"2 38867   0.0265 253.4138 0000470 115.0420 292.5639  1.00270203 49180"},{"name":"BEIDOU-2 G6","tle1":"1 38953U 12059A   26091.70275272 -.00000181  00000+0  00000+0 0  9994","tle2":"2 38953   4.2289  74.3270 0010766 309.5702 143.2006  1.00271954 49147"},{"name":"LUCH-5B","tle1":"1 38977U 12061A   26091.67729566 -.00000141  00000+0  00000+0 0  9995","tle2":"2 38977  10.3207  50.6265 0002777 228.4925 138.4023  1.00273530 48844"},{"name":"YAMAL 300K","tle1":"1 38978U 12061B   26091.64548884  .00000062  00000+0  00000+0 0  9996","tle2":"2 38978   0.0094 175.7326 0000656  36.2543  33.3241  1.00272643 48868"},{"name":"STAR ONE C3","tle1":"1 38991U 12062A   26091.45171443 -.00000259  00000+0  00000+0 0  9993","tle2":"2 38991   0.0375 268.6122 0002411 119.9754 248.8195  1.00272767 48997"},{"name":"EUTELSAT 21B","tle1":"1 38992U 12062B   26091.68483568  .00000121  00000+0  00000+0 0  9990","tle2":"2 38992   0.0698   4.0251 0002851   4.8930  89.2433  1.00271870 49062"},{"name":"ECHOSTAR 16","tle1":"1 39008U 12065A   26091.45440111  .00000000  00000+0  00000+0 0  9990","tle2":"2 39008   0.0192 197.3367 0002240 180.9385 273.6367  1.00271128 48875"},{"name":"ZHONGXING-12","tle1":"1 39017U 12067A   26091.86086446 -.00000214  00000+0  00000+0 0  9992","tle2":"2 39017   0.0065 211.5461 0003341 155.6237 220.4336  1.00271755 48744"},{"name":"EUTELSAT 70B","tle1":"1 39020U 12069A   26091.92524913 -.00000051  00000+0  00000+0 0  9990","tle2":"2 39020   0.0672 347.7882 0001788  24.9360 221.1452  1.00272370 48740"},{"name":"YAMAL 402","tle1":"1 39022U 12070A   26091.81641811  .00000079  00000+0  00000+0 0  9998","tle2":"2 39022   1.0688  85.1081 0004035 285.0555 168.8088  1.00273190 48639"},{"name":"SKYNET 5D","tle1":"1 39034U 12075A   26090.62140755  .00000086  00000+0  00000+0 0  9993","tle2":"2 39034   0.0708  11.5629 0003691 356.2208  97.6510  1.00274038 48381"},{"name":"MEXSAT 3","tle1":"1 39035U 12075B   26091.65779558 -.00000035  00000+0  00000+0 0  9992","tle2":"2 39035   0.0111 178.9645 0001005 198.0664 295.0118  1.00273103  6284"},{"name":"TDRS 11","tle1":"1 39070U 13004A   26091.62199565  .00000072  00000+0  00000+0 0  9995","tle2":"2 39070   3.4089  29.8854 0004458 355.5312 214.0412  1.00272353 45923"},{"name":"AMAZONAS 3","tle1":"1 39078U 13006A   26091.45448778 -.00000292  00000+0  00000+0 0  9994","tle2":"2 39078   0.0321 228.3421 0002027 131.5343 292.5343  1.00268889 44141"},{"name":"AZERSPACE 1","tle1":"1 39079U 13006B   26091.78030868  .00000000  00000+0  00000+0 0  9994","tle2":"2 39079   0.0204 209.1067 0001768 208.0887  99.8497  1.00273047 48042"},{"name":"SBIRS GEO-2 (USA 241)","tle1":"1 39120U 13011A   26091.38541417 -.00000293  00000+0  00000+0 0  9995","tle2":"2 39120   4.3234  52.4118 0002228 316.2033 270.0765  1.00271554 47762"},{"name":"EUTELSAT 117 WEST A","tle1":"1 39122U 13012A   26091.65736223 -.00000022  00000+0  00000+0 0  9999","tle2":"2 39122   0.0471  47.6658 0002991 329.8572 292.3296  1.00272981 47660"},{"name":"ANIK G1","tle1":"1 39127U 13014A   26091.59555458 -.00000083  00000+0  00000+0 0  9995","tle2":"2 39127   0.0343  92.8432 0002507 259.5985 304.5980  1.00271890 47489"}]}